NORAD_CAT_ID,OBJECT_NAME,OBJECT_TYPE,EPOCH,MEAN_MOTION,ECCENTRICITY,INCLINATION,RA_OF_ASC_NODE,ARG_OF_PERICENTER,MEAN_ANOMALY,BSTAR,MEAN_MOTION_DOT,MEAN_MOTION_DDOT,TLE_LINE0,TLE_LINE1,TLE_LINE2,SEMIMAJOR_AXIS,PERIOD,APOGEE,PERIGEE,DECAYED
55636.0,STARLINK-5218,PAYLOAD,2023-07-08 06:50:29,14.98332386,0.00046,69.9989,143.7326,258.5365,101.5278,2.1999e-05,1.69e-06,0.0,0 STARLINK-5218,1 55636U 23021J   23189.28506717  .00000169  00000-0  21999-4 0  9992,2 55636  69.9989 143.7326 0004600 258.5365 101.5278 14.98332386 21898,6950.186,96.107,575.248,568.853,0.0
55636.0,STARLINK-5218,PAYLOAD,2023-07-08 14:51:10,14.98319064,0.0004377,69.999,142.8909,256.1701,103.8971,0.00018751,2.144e-05,0.0,0 STARLINK-5218,1 55636U 23021J   23189.61887204  .00002144  00000-0  18751-3 0  9998,2 55636  69.9990 142.8909 0004377 256.1701 103.8971 14.98319064 21945,6950.227,96.108,575.134,569.05,0.0
55636.0,STARLINK-5218,PAYLOAD,2023-07-09 06:52:30,14.9832961,0.0004535,69.999,141.208,258.8341,101.2308,1.5688e-05,9.4e-07,0.0,0 STARLINK-5218,1 55636U 23021J   23190.28646955  .00000094  00000-0  15688-4 0  9998,2 55636  69.9990 141.2080 0004535 258.8341 101.2308 14.98329610 22049,6950.194,96.107,575.211,568.907,0.0
55636.0,STARLINK-5218,PAYLOAD,2023-07-10 06:54:31,14.98333746,0.0004507,69.9991,138.6833,258.2594,101.8059,4.0598e-05,3.91e-06,0.0,0 STARLINK-5218,1 55636U 23021J   23191.28786622  .00000391  00000-0  40598-4 0  9993,2 55636  69.9991 138.6833 0004507 258.2594 101.8059 14.98333746 22199,6950.181,96.107,575.179,568.914,0.0
55636.0,STARLINK-5218,PAYLOAD,2023-07-10 21:19:44,14.98328217,0.0004462,69.9991,137.1684,258.1079,101.9579,2.5252e-05,2.08e-06,0.0,0 STARLINK-5218,1 55636U 23021J   23191.88870978  .00000208  00000-0  25252-4 0  9994,2 55636  69.9991 137.1684 0004462 258.1079 101.9579 14.98328217 22289,6950.198,96.107,575.165,568.962,0.0
55636.0,STARLINK-5218,PAYLOAD,2023-07-11 06:56:32,14.98333464,0.0004445,69.9993,136.1589,256.7177,103.3487,7.342e-05,7.83e-06,0.0,0 STARLINK-5218,1 55636U 23021J   23192.28926478  .00000783  00000-0  73420-4 0  9994,2 55636  69.9993 136.1589 0004445 256.7177 103.3487 14.98333464 22349,6950.182,96.107,575.137,568.958,0.0
55636.0,STARLINK-5218,PAYLOAD,2023-07-12 16:35:22,14.9833593,0.0003765,69.9999,132.6237,261.4178,98.6554,-0.00010995,-1.405e-05,0.0,0 STARLINK-5218,1 55636U 23021J   23193.69122763 -.00001405  00000-0 -10995-3 0  9996,2 55636  69.9999 132.6237 0003765 261.4178  98.6554 14.98335930 22558,6950.175,96.107,574.656,569.423,0.0
55636.0,STARLINK-5218,PAYLOAD,2023-07-13 15:01:15,14.98328747,0.0004212,69.9993,130.2673,257.1965,102.8724,-5.776e-05,-7.82e-06,0.0,0 STARLINK-5218,1 55636U 23021J   23194.62586949 -.00000782  00000-0 -57760-4 0  9999,2 55636  69.9993 130.2673 0004212 257.1965 102.8724 14.98328747 22694,6950.197,96.107,574.989,569.134,0.0
55636.0,STARLINK-5218,PAYLOAD,2023-07-14 02:14:12,14.98314591,0.0004139,69.9993,129.0891,258.7198,101.3496,-0.00019233,-2.387e-05,0.0,0 STARLINK-5218,1 55636U 23021J   23195.09320411 -.00002387  00000-0 -19233-3 0  9996,2 55636  69.9993 129.0891 0004139 258.7198 101.3496 14.98314591 22765,6950.241,96.108,574.982,569.229,0.0
55636.0,STARLINK-5218,PAYLOAD,2023-07-14 18:15:33,14.98318466,0.0004187,69.9991,127.4053,258.885,101.1838,-1.5316e-05,-2.76e-06,0.0,0 STARLINK-5218,1 55636U 23021J   23195.76080152 -.00000276  00000-0 -15316-4 0  9999,2 55636  69.9991 127.4053 0004187 258.8850 101.1838 14.98318466 22868,6950.229,96.108,575.004,569.183,0.0
55636.0,STARLINK-5218,PAYLOAD,2023-07-15 02:16:13,14.98325222,0.0004149,69.9993,126.5642,258.657,101.4123,4.5456e-05,4.49e-06,0.0,0 STARLINK-5218,1 55636U 23021J   23196.09459775  .00000449  00000-0  45456-4 0  9995,2 55636  69.9993 126.5642 0004149 258.6570 101.4123 14.98325222 22913,6950.208,96.107,574.956,569.189,0.0
55636.0,STARLINK-5218,PAYLOAD,2023-07-15 18:17:33,14.98277311,0.0003669,69.9991,124.8804,253.6063,106.4693,0.0010624,0.00012589,0.0,0 STARLINK-5218,1 55636U 23021J   23196.76219802  .00012589  00000-0  10624-2 0  9999,2 55636  69.9991 124.8804 0003669 253.6063 106.4693 14.98277311 23014,6950.356,96.11,574.771,569.671,0.0
55636.0,STARLINK-5218,PAYLOAD,2023-07-16 02:18:13,14.98323083,0.0003902,69.9992,124.0391,254.4355,105.6373,0.00045796,5.375e-05,0.0,0 STARLINK-5218,1 55636U 23021J   23197.09598940  .00005375  00000-0  45796-3 0  9993,2 55636  69.9992 124.0391 0003902 254.4355 105.6373 14.98323083 23060,6950.214,96.107,574.791,569.367,0.0
55636.0,STARLINK-5218,PAYLOAD,2023-07-16 05:30:29,14.98334422,0.0004008,69.9992,123.7023,258.149,101.9219,0.00030918,3.599e-05,0.0,0 STARLINK-5218,1 55636U 23021J   23197.22950412  .00003599  00000-0  30918-3 0  9990,2 55636  69.9992 123.7023 0004008 258.1490 101.9219 14.98334422 23086,6950.179,96.107,574.83,569.259,0.0
55636.0,STARLINK-5218,PAYLOAD,2023-07-16 23:07:58,14.98320169,0.0003805,69.9995,121.8513,256.3543,103.7192,0.00019103,2.186e-05,0.0,0 STARLINK-5218,1 55636U 23021J   23197.96387593  .00002186  00000-0  19103-3 0  9999,2 55636  69.9995 121.8513 0003805 256.3543 103.7192 14.98320169 23190,6950.223,96.108,574.733,569.444,0.0
55636.0,STARLINK-5218,PAYLOAD,2023-07-17 05:32:30,14.98331337,0.0003556,70.0,121.1782,250.2731,109.8044,6.3548e-05,6.65e-06,0.0,0 STARLINK-5218,1 55636U 23021J   23198.23091227  .00000665  00000-0  63548-4 0  9999,2 55636  70.0000 121.1782 0003556 250.2731 109.8044 14.98331337 23233,6950.189,96.107,574.525,569.582,0.0
55636.0,STARLINK-5218,PAYLOAD,2023-07-17 11:57:02,14.98349478,0.0003654,70.0003,120.5046,258.7404,101.3344,-0.0002759,-3.385e-05,0.0,0 STARLINK-5218,1 55636U 23021J   23198.49794730 -.00003385  00000-0 -27590-3 0  9996,2 55636  70.0003 120.5046 0003654 258.7404 101.3344 14.98349478 23270,6950.133,96.106,574.537,569.458,0.0
55636.0,STARLINK-5218,PAYLOAD,2023-07-18 00:46:07,14.98337322,0.0003692,69.9997,119.1586,256.0439,104.031,-6.2809e-05,-8.43e-06,0.0,0 STARLINK-5218,1 55636U 23021J   23199.03202834 -.00000843  00000-0 -62809-4 0  9995,2 55636  69.9997 119.1586 0003692 256.0439 104.0310 14.98337322 23350,6950.17,96.107,574.601,569.469,0.0
55636.0,STARLINK-5218,PAYLOAD,2023-07-19 02:24:16,14.98329062,0.0003637,69.9998,116.4653,260.1879,99.887,-4.1065e-06,-1.42e-06,0.0,0 STARLINK-5218,1 55636U 23021J   23200.10018915 -.00000142  00000-0 -41065-5 0  9995,2 55636  69.9998 116.4653 0003637 260.1879  99.8870 14.98329062 23511,6950.196,96.107,574.589,569.533,0.0
55636.0,STARLINK-5218,PAYLOAD,2023-07-20 16:51:29,14.98328176,0.0003841,69.9994,112.4242,260.6672,99.4053,3.9582e-05,3.79e-06,0.0,0 STARLINK-5218,1 55636U 23021J   23201.70242805  .00000379  00000-0  39582-4 0  9999,2 55636  69.9994 112.4242 0003841 260.6672  99.4053 14.98328176 23750,6950.199,96.107,574.733,569.394,0.0
55636.0,STARLINK-5218,PAYLOAD,2023-07-21 04:04:25,14.98335403,0.0003689,69.9992,111.2461,259.4651,100.6092,8.582e-05,9.31e-06,0.0,0 STARLINK-5218,1 55636U 23021J   23202.16974247  .00000931  00000-0  85820-4 0  9992,2 55636  69.9992 111.2461 0003689 259.4651 100.6092 14.98335403 23828,6950.176,96.107,574.605,569.477,0.0
55636.0,STARLINK-5218,PAYLOAD,2023-07-23 21:45:57,14.98322241,0.0003571,69.9989,104.3447,260.4233,99.6523,-9.6575e-05,-1.245e-05,0.0,0 STARLINK-5218,1 55636U 23021J   23204.90691293 -.00001245  00000-0 -96575-4 0  9993,2 55636  69.9989 104.3447 0003571 260.4233  99.6523 14.98322241 24530,6950.217,96.107,574.564,569.6,0.0
55636.0,STARLINK-5218,PAYLOAD,2023-07-24 21:47:57,14.98332245,0.0003632,69.9989,101.8207,262.3433,97.7313,7.8908e-07,-8.4e-07,0.0,0 STARLINK-5218,1 55636U 23021J   23205.90830537 -.00000084  00000-0  78908-6 0  9991,2 55636  69.9989 101.8207 0003632 262.3433  97.7313 14.98332245 24684,6950.186,96.107,574.575,569.527,0.0
55636.0,STARLINK-5218,PAYLOAD,2023-07-26 02:38:22,14.9833048,0.0003325,69.9995,98.7899,267.9233,92.1545,4.0473e-05,3.9e-06,0.0,0 STARLINK-5218,1 55636U 23021J   23207.10998682  .00000390  00000-0  40473-4 0  9994,2 55636  69.9995  98.7899 0003325 267.9233  92.1545 14.98330480 24865,6950.191,96.107,574.367,569.745,0.0
55636.0,STARLINK-5218,PAYLOAD,2023-07-26 23:28:07,14.98337952,0.0003422,69.9992,96.6022,267.1401,92.9367,3.7962e-05,3.6e-06,0.0,0 STARLINK-5218,1 55636U 23021J   23207.97785954  .00000360  00000-0  37962-4 0  9991,2 55636  69.9992  96.6022 0003422 267.1401  92.9367 14.98337952 24696,6950.168,96.106,574.412,569.655,0.0
55636.0,STARLINK-5218,PAYLOAD,2023-07-27 10:41:03,14.98334438,0.0003395,69.9991,95.424,266.7321,93.345,6.7887e-05,7.17e-06,0.0,0 STARLINK-5218,1 55636U 23021J   23208.44517833  .00000717  00000-0  67887-4 0  9998,2 55636  69.9991  95.4240 0003395 266.7321  93.3450 14.98334438 25065,6950.179,96.107,574.404,569.685,0.0
55636.0,STARLINK-5218,PAYLOAD,2023-07-27 21:54:01,14.98317374,0.0003428,69.9991,94.2452,266.5204,93.5563,-0.00011679,-1.486e-05,0.0,0 STARLINK-5218,1 55636U 23021J   23208.91251531 -.00001486  00000-0 -11679-3 0  9993,2 55636  69.9991  94.2452 0003428 266.5204  93.5563 14.98317374 25137,6950.232,96.108,574.479,569.714,0.0
55636.0,STARLINK-5218,PAYLOAD,2023-07-28 01:06:17,14.98321668,0.0003383,69.999,93.9088,268.1832,91.8939,-6.8319e-05,-9.08e-06,0.0,0 STARLINK-5218,1 55636U 23021J   23209.04603206 -.00000908  00000-0 -68319-4 0  9990,2 55636  69.9990  93.9088 0003383 268.1832  91.8939 14.98321668 24859,6950.219,96.108,574.435,569.732,0.0
55636.0,STARLINK-5218,PAYLOAD,2023-07-28 15:31:29,14.98330986,0.0003412,69.9988,92.3938,268.2963,91.7805,-7.0935e-05,-9.39e-06,0.0,0 STARLINK-5218,1 55636U 23021J   23209.64686777 -.00000939  00000-0 -70935-4 0  9991,2 55636  69.9988  92.3938 0003412 268.2963  91.7805 14.98330986 24946,6950.19,96.107,574.426,569.683,0.0
55636.0,STARLINK-5218,PAYLOAD,2023-07-29 01:08:17,14.98336774,0.00034,69.9988,91.3839,268.0517,92.0253,2.9403e-06,-5.8e-07,0.0,0 STARLINK-5218,1 55636U 23021J   23210.04742154 -.00000058  00000-0  29403-5 0  9995,2 55636  69.9988  91.3839 0003400 268.0517  92.0253 14.98336774 25005,6950.172,96.107,574.4,569.674,0.0
